CCSDS_OMM_VERS = 2.0
CREATION_DATE  = 
ORIGINATOR     = 

OBJECT_NAME    = STARLINK-37076
OBJECT_ID      = 2026-050G
CENTER_NAME    = EARTH
REF_FRAME      = TEME
TIME_SYSTEM    = UTC
MEAN_ELEMENT_THEORY = SGP/SGP4

EPOCH          = 2026-03-31T11:53:01.112064
MEAN_MOTION    = 15.80925339
ECCENTRICITY   = .00012357
INCLINATION    = 53.1589
RA_OF_ASC_NODE = 172.5094
ARG_OF_PERICENTER = 65.9935
MEAN_ANOMALY   = 294.1217

EPHEMERIS_TYPE = 0
CLASSIFICATION_TYPE = U
NORAD_CAT_ID   = 68173
ELEMENT_SET_NO = 999
REV_AT_EPOCH   = 392
BSTAR          = .1249187E-2
MEAN_MOTION_DOT = .253845E-2
MEAN_MOTION_DDOT = 0

CCSDS_OMM_VERS = 2.0
CREATION_DATE  = 
ORIGINATOR     = 

OBJECT_NAME    = STARLINK-37078
OBJECT_ID      = 2026-050H
CENTER_NAME    = EARTH
REF_FRAME      = TEME
TIME_SYSTEM    = UTC
MEAN_ELEMENT_THEORY = SGP/SGP4

EPOCH          = 2026-03-31T11:51:56.262816
MEAN_MOTION    = 15.80933733
ECCENTRICITY   = .00012178
INCLINATION    = 53.1588
RA_OF_ASC_NODE = 172.5045
ARG_OF_PERICENTER = 85.6779
MEAN_ANOMALY   = 274.4383

EPHEMERIS_TYPE = 0
CLASSIFICATION_TYPE = U
NORAD_CAT_ID   = 68174
ELEMENT_SET_NO = 999
REV_AT_EPOCH   = 392
BSTAR          = .12941241E-2
MEAN_MOTION_DOT = .263399E-2
MEAN_MOTION_DDOT = 0

CCSDS_OMM_VERS = 2.0
CREATION_DATE  = 
ORIGINATOR     = 

OBJECT_NAME    = STARLINK-36886
OBJECT_ID      = 2026-050J
CENTER_NAME    = EARTH
REF_FRAME      = TEME
TIME_SYSTEM    = UTC
MEAN_ELEMENT_THEORY = SGP/SGP4

EPOCH          = 2026-03-31T11:50:50.484768
MEAN_MOTION    = 15.81021187
ECCENTRICITY   = .00006557
INCLINATION    = 53.1588
RA_OF_ASC_NODE = 172.4991
ARG_OF_PERICENTER = 92.3232
MEAN_ANOMALY   = 267.7866

EPHEMERIS_TYPE = 0
CLASSIFICATION_TYPE = U
NORAD_CAT_ID   = 68175
ELEMENT_SET_NO = 999
REV_AT_EPOCH   = 392
BSTAR          = .18585341E-2
MEAN_MOTION_DOT = .38562E-2
MEAN_MOTION_DDOT = 0

CCSDS_OMM_VERS = 2.0
CREATION_DATE  = 
ORIGINATOR     = 

OBJECT_NAME    = STARLINK-36905
OBJECT_ID      = 2026-050K
CENTER_NAME    = EARTH
REF_FRAME      = TEME
TIME_SYSTEM    = UTC
MEAN_ELEMENT_THEORY = SGP/SGP4

EPOCH          = 2026-03-31T13:20:48.893280
MEAN_MOTION    = 15.80926160
ECCENTRICITY   = .00011607
INCLINATION    = 53.1586
RA_OF_ASC_NODE = 172.1773
ARG_OF_PERICENTER = 79.5841
MEAN_ANOMALY   = 280.5313

EPHEMERIS_TYPE = 0
CLASSIFICATION_TYPE = U
NORAD_CAT_ID   = 68176
ELEMENT_SET_NO = 999
REV_AT_EPOCH   = 393
BSTAR          = .11299863E-2
MEAN_MOTION_DOT = .228895E-2
MEAN_MOTION_DDOT = 0

CCSDS_OMM_VERS = 2.0
CREATION_DATE  = 
ORIGINATOR     = 

OBJECT_NAME    = STARLINK-36668
OBJECT_ID      = 2026-050L
CENTER_NAME    = EARTH
REF_FRAME      = TEME
TIME_SYSTEM    = UTC
MEAN_ELEMENT_THEORY = SGP/SGP4

EPOCH          = 2026-03-31T11:48:41.848128
MEAN_MOTION    = 15.80934378
ECCENTRICITY   = .0001344
INCLINATION    = 53.1592
RA_OF_ASC_NODE = 172.4887
ARG_OF_PERICENTER = 59.2601
MEAN_ANOMALY   = 300.8554

EPHEMERIS_TYPE = 0
CLASSIFICATION_TYPE = U
NORAD_CAT_ID   = 68177
ELEMENT_SET_NO = 999
REV_AT_EPOCH   = 392
BSTAR          = .13749E-2
MEAN_MOTION_DOT = .280459E-2
MEAN_MOTION_DDOT = 0

CCSDS_OMM_VERS = 2.0
CREATION_DATE  = 
ORIGINATOR     = 

OBJECT_NAME    = STARLINK-36677
OBJECT_ID      = 2026-050M
CENTER_NAME    = EARTH
REF_FRAME      = TEME
TIME_SYSTEM    = UTC
MEAN_ELEMENT_THEORY = SGP/SGP4

EPOCH          = 2026-03-31T13:18:39.408192
MEAN_MOTION    = 15.80887390
ECCENTRICITY   = .0001455
INCLINATION    = 53.1593
RA_OF_ASC_NODE = 172.1662
ARG_OF_PERICENTER = 105.7093
MEAN_ANOMALY   = 254.4091

EPHEMERIS_TYPE = 0
CLASSIFICATION_TYPE = U
NORAD_CAT_ID   = 68178
ELEMENT_SET_NO = 999
REV_AT_EPOCH   = 393
BSTAR          = .84467509E-3
MEAN_MOTION_DOT = .169435E-2
MEAN_MOTION_DDOT = 0

CCSDS_OMM_VERS = 2.0
CREATION_DATE  = 
ORIGINATOR     = 

OBJECT_NAME    = STARLINK-37052
OBJECT_ID      = 2026-050N
CENTER_NAME    = EARTH
REF_FRAME      = TEME
TIME_SYSTEM    = UTC
MEAN_ELEMENT_THEORY = SGP/SGP4

EPOCH          = 2026-03-31T13:17:34.507968
MEAN_MOTION    = 15.80936107
ECCENTRICITY   = .00010878
INCLINATION    = 53.1587
RA_OF_ASC_NODE = 172.1618
ARG_OF_PERICENTER = 78.4506
MEAN_ANOMALY   = 281.6638

EPHEMERIS_TYPE = 0
CLASSIFICATION_TYPE = U
NORAD_CAT_ID   = 68179
ELEMENT_SET_NO = 999
REV_AT_EPOCH   = 393
BSTAR          = .1331685E-2
MEAN_MOTION_DOT = .271347E-2
MEAN_MOTION_DDOT = 0

CCSDS_OMM_VERS = 2.0
CREATION_DATE  = 
ORIGINATOR     = 

OBJECT_NAME    = STARLINK-37035
OBJECT_ID      = 2026-050P
CENTER_NAME    = EARTH
REF_FRAME      = TEME
TIME_SYSTEM    = UTC
MEAN_ELEMENT_THEORY = SGP/SGP4

EPOCH          = 2026-03-31T13:16:29.786592
MEAN_MOTION    = 15.80888190
ECCENTRICITY   = .00009463
INCLINATION    = 53.1590
RA_OF_ASC_NODE = 172.1569
ARG_OF_PERICENTER = 90.0006
MEAN_ANOMALY   = 270.1125

EPHEMERIS_TYPE = 0
CLASSIFICATION_TYPE = U
NORAD_CAT_ID   = 68180
ELEMENT_SET_NO = 999
REV_AT_EPOCH   = 393
BSTAR          = .79014723E-3
MEAN_MOTION_DOT = .15825E-2
MEAN_MOTION_DDOT = 0

CCSDS_OMM_VERS = 2.0
CREATION_DATE  = 
ORIGINATOR     = 

OBJECT_NAME    = STARLINK-37032
OBJECT_ID      = 2026-050Q
CENTER_NAME    = EARTH
REF_FRAME      = TEME
TIME_SYSTEM    = UTC
MEAN_ELEMENT_THEORY = SGP/SGP4

EPOCH          = 2026-03-31T13:15:24.767136
MEAN_MOTION    = 15.80933367
ECCENTRICITY   = .00008981
INCLINATION    = 53.1591
RA_OF_ASC_NODE = 172.1520
ARG_OF_PERICENTER = 85.5975
MEAN_ANOMALY   = 274.5151

EPHEMERIS_TYPE = 0
CLASSIFICATION_TYPE = U
NORAD_CAT_ID   = 68181
ELEMENT_SET_NO = 999
REV_AT_EPOCH   = 393
BSTAR          = .12767756E-2
MEAN_MOTION_DOT = .259745E-2
MEAN_MOTION_DDOT = 0

CCSDS_OMM_VERS = 2.0
CREATION_DATE  = 
ORIGINATOR     = 

OBJECT_NAME    = STARLINK-37082
OBJECT_ID      = 2026-050R
CENTER_NAME    = EARTH
REF_FRAME      = TEME
TIME_SYSTEM    = UTC
MEAN_ELEMENT_THEORY = SGP/SGP4

EPOCH          = 2026-03-31T13:14:20.100192
MEAN_MOTION    = 15.80884613
ECCENTRICITY   = .00010473
INCLINATION    = 53.1592
RA_OF_ASC_NODE = 172.1465
ARG_OF_PERICENTER = 100.5846
MEAN_ANOMALY   = 259.5295

EPHEMERIS_TYPE = 0
CLASSIFICATION_TYPE = U
NORAD_CAT_ID   = 68182
ELEMENT_SET_NO = 999
REV_AT_EPOCH   = 393
BSTAR          = .76362736E-3
MEAN_MOTION_DOT = .152792E-2
MEAN_MOTION_DDOT = 0

CCSDS_OMM_VERS = 2.0
CREATION_DATE  = 
ORIGINATOR     = 

OBJECT_NAME    = STARLINK-37102
OBJECT_ID      = 2026-050S
CENTER_NAME    = EARTH
REF_FRAME      = TEME
TIME_SYSTEM    = UTC
MEAN_ELEMENT_THEORY = SGP/SGP4

EPOCH          = 2026-03-31T14:44:17.426976
MEAN_MOTION    = 15.80955771
ECCENTRICITY   = .00013343
INCLINATION    = 53.1591
RA_OF_ASC_NODE = 171.8251
ARG_OF_PERICENTER = 74.4838
MEAN_ANOMALY   = 285.6332

EPHEMERIS_TYPE = 0
CLASSIFICATION_TYPE = U
NORAD_CAT_ID   = 68183
ELEMENT_SET_NO = 999
REV_AT_EPOCH   = 394
BSTAR          = .15654158E-2
MEAN_MOTION_DOT = .321258E-2
MEAN_MOTION_DDOT = 0

CCSDS_OMM_VERS = 2.0
CREATION_DATE  = 
ORIGINATOR     = 

OBJECT_NAME    = STARLINK-36964
OBJECT_ID      = 2026-050T
CENTER_NAME    = EARTH
REF_FRAME      = TEME
TIME_SYSTEM    = UTC
MEAN_ELEMENT_THEORY = SGP/SGP4

EPOCH          = 2026-03-31T13:12:10.530432
MEAN_MOTION    = 15.80947200
ECCENTRICITY   = .00011901
INCLINATION    = 53.1591
RA_OF_ASC_NODE = 172.1369
ARG_OF_PERICENTER = 53.7755
MEAN_ANOMALY   = 306.3378

EPHEMERIS_TYPE = 0
CLASSIFICATION_TYPE = U
NORAD_CAT_ID   = 68184
ELEMENT_SET_NO = 999
REV_AT_EPOCH   = 393
BSTAR          = .15892845E-2
MEAN_MOTION_DOT = .326231E-2
MEAN_MOTION_DDOT = 0

