STARLINK-37076          
1 68173U 26050G   26090.49515176  .00253845  00000+0  12492-2 0  9999
2 68173  53.1589 172.5094 0001235  65.9935 294.1217 15.80925339  3929
STARLINK-37078          
1 68174U 26050H   26090.49440119  .00263399  00000+0  12941-2 0  9998
2 68174  53.1588 172.5045 0001217  85.6779 274.4383 15.80933733  3922
STARLINK-36886          
1 68175U 26050J   26090.49363987  .00385620  00000+0  18585-2 0  9998
2 68175  53.1588 172.4991 0000655  92.3232 267.7866 15.81021187  3929
STARLINK-36905          
1 68176U 26050K   26090.55612145  .00228895  00000+0  11300-2 0  9997
2 68176  53.1586 172.1773 0001160  79.5841 280.5313 15.80926160  3933
STARLINK-36668          
1 68177U 26050L   26090.49215102  .00280459  00000+0  13749-2 0  9996
2 68177  53.1592 172.4887 0001344  59.2601 300.8554 15.80934378  3925
STARLINK-36677          
1 68178U 26050M   26090.55462278  .00169435  00000+0  84468-3 0  9999
2 68178  53.1593 172.1662 0001455 105.7093 254.4091 15.80887390  3932
STARLINK-37052          
1 68179U 26050N   26090.55387162  .00271347  00000+0  13317-2 0  9998
2 68179  53.1587 172.1618 0001087  78.4506 281.6638 15.80936107  3933
STARLINK-37035          
1 68180U 26050P   26090.55312253  .00158250  00000+0  79015-3 0  9994
2 68180  53.1590 172.1569 0000946  90.0006 270.1125 15.80888190  3934
STARLINK-37032          
1 68181U 26050Q   26090.55236999  .00259745  00000+0  12768-2 0  9999
2 68181  53.1591 172.1520 0000898  85.5975 274.5151 15.80933367  3937
STARLINK-37082          
1 68182U 26050R   26090.55162153  .00152792  00000+0  76363-3 0  9996
2 68182  53.1592 172.1465 0001047 100.5846 259.5295 15.80884613  3930
STARLINK-37102          
1 68183U 26050S   26090.61409059  .00321258  00000+0  15654-2 0  9993
2 68183  53.1591 171.8251 0001334  74.4838 285.6332 15.80955771  3945
STARLINK-36964          
1 68184U 26050T   26090.55012188  .00326231  00000+0  15893-2 0  9991
2 68184  53.1591 172.1369 0001190  53.7755 306.3378 15.80947200  3936
